0 OPS 4682 DEB
1 38410U 65027DP  13282.17370395  .00000457  00000-0  15862-2 0  1001
2 38410 090.2864 252.9594 0038482 047.5245 312.9117 12.95642782753066
0 OPS 4682 DEB
1 38410U 65027DP  13285.26270014  .00000657  00000-0  22904-2 0  1019
2 38410 090.2868 253.0404 0038436 039.8915 320.5018 12.95644511753460
0 OPS 4682 DEB
1 38410U 65027DP  13286.34385029  .00000426  00000-0  14761-2 0  1029
2 38410 090.2869 253.0685 0038461 037.2796 323.0982 12.95648289753609
0 OPS 4682 DEB
1 38410U 65027DP  13287.65667252  .00000101  00000-0  33014-3 0  1039
2 38410 090.2872 253.1029 0038467 034.0883 326.2696 12.95653248753770
0 OPS 4682 DEB
1 38410U 65027DP  13289.66451005 -.00000268  00000-0 -96942-3 0  1045
2 38410 090.2875 253.1554 0038483 029.2329 331.0933 12.95656782754039
0 OPS 4682 DEB
1 38410U 65027DP  13291.67233721 -.00000059  00000-0 -23399-3 0  1057
2 38410 090.2877 253.2082 0038432 024.3296 335.9627 12.95654961754299
0 OPS 4682 DEB
1 38410U 65027DP  13295.84244211  .00000912  00000-0  31893-2 0  1060
2 38410 090.2877 253.3183 0038334 014.1946 346.0242 12.95650557754835
